[{"OBJECT_NAME":"GOES 18","OBJECT_ID":"2022-021A","EPOCH":"2026-03-14T17:12:41.537088","MEAN_MOTION":1.00272889,"ECCENTRICITY":8.323e-5,"INCLINATION":0.035,"RA_OF_ASC_NODE":37.8704,"ARG_OF_PERICENTER":25.8264,"MEAN_ANOMALY":229.7934,"EPHEMERIS_TYPE":0,"CLASSIFICATION_TYPE":"U","NORAD_CAT_ID":51850,"ELEMENT_SET_NO":999,"REV_AT_EPOCH":564,"BSTAR":0,"MEAN_MOTION_DOT":9.6e-7,"MEAN_MOTION_DDOT":0},{"OBJECT_NAME":"GOES 19","OBJECT_ID":"2024-119A","EPOCH":"2026-03-14T21:50:36.371616","MEAN_MOTION":1.00271425,"ECCENTRICITY":0.00010744,"INCLINATION":0.0396,"RA_OF_ASC_NODE":336.0564,"ARG_OF_PERICENTER":66.265,"MEAN_ANOMALY":22.6583,"EPHEMERIS_TYPE":0,"CLASSIFICATION_TYPE":"U","NORAD_CAT_ID":60133,"ELEMENT_SET_NO":999,"REV_AT_EPOCH":601,"BSTAR":0,"MEAN_MOTION_DOT":-2.49e-6,"MEAN_MOTION_DDOT":0}]
